NORAD_CAT_ID,OBJECT_NAME,OBJECT_TYPE,EPOCH,MEAN_MOTION,ECCENTRICITY,INCLINATION,RA_OF_ASC_NODE,ARG_OF_PERICENTER,MEAN_ANOMALY,BSTAR,MEAN_MOTION_DOT,MEAN_MOTION_DDOT,TLE_LINE0,TLE_LINE1,TLE_LINE2,SEMIMAJOR_AXIS,PERIOD,APOGEE,PERIGEE,DECAYED
55776.0,STARLINK-5810,PAYLOAD,2023-11-13 01:50:00,14.98332719,0.0002741,69.9998,201.3947,265.0852,94.9995,7.2854e-06,-6e-08,0.0,0 STARLINK-5810,1 55776U 23028AM  23317.07639877 -.00000006  00000-0  72854-5 0  9996,2 55776  69.9998 201.3947 0002741 265.0852  94.9995 14.98332719 39576,6950.184,96.107,573.955,570.144,0.0
55776.0,STARLINK-5810,PAYLOAD,2023-11-14 01:52:02,14.98320505,0.0002859,69.9998,198.8701,272.8247,87.2584,0.00018962,2.17e-05,0.0,0 STARLINK-5810,1 55776U 23028AM  23318.07780155  .00002170  00000-0  18962-3 0  9994,2 55776  69.9998 198.8701 0002859 272.8247  87.2584 14.98320505 39724,6950.222,96.108,574.074,570.1,0.0
55776.0,STARLINK-5810,PAYLOAD,2023-11-14 09:52:42,14.983302,0.0002895,69.9998,198.0284,267.8475,92.2353,5.804e-06,-2.4e-07,0.0,0 STARLINK-5810,1 55776U 23028AM  23318.41159895 -.00000024  00000-0  58040-5 0  9993,2 55776  69.9998 198.0284 0002895 267.8475  92.2353 14.98330200 39777,6950.192,96.107,574.069,570.045,0.0
55776.0,STARLINK-5810,PAYLOAD,2023-11-14 22:41:46,14.98330263,0.000278,69.9998,196.682,269.3241,90.7599,5.3551e-06,-2.9e-07,0.0,0 STARLINK-5810,1 55776U 23028AM  23318.94567918 -.00000029  00000-0  53551-5 0  9997,2 55776  69.9998 196.6820 0002780 269.3241  90.7599 14.98330263 39851,6950.192,96.107,573.989,570.125,0.0
55776.0,STARLINK-5810,PAYLOAD,2023-11-15 01:54:02,14.98329708,0.0002813,69.9998,196.3455,269.571,90.5126,-1.0549e-06,-1.06e-06,0.0,0 STARLINK-5810,1 55776U 23028AM  23319.07919965 -.00000106  00000-0 -10549-5 0  9992,2 55776  69.9998 196.3455 0002813 269.5710  90.5126 14.98329708 39870,6950.194,96.107,574.014,570.104,0.0
55776.0,STARLINK-5810,PAYLOAD,2023-11-16 01:56:03,14.98332947,0.000286,70.0001,193.8209,271.5643,88.5189,3.4432e-05,3.18e-06,0.0,0 STARLINK-5810,1 55776U 23028AM  23320.08059522  .00000318  00000-0  34432-4 0  9998,2 55776  70.0001 193.8209 0002860 271.5643  88.5189 14.98332947 40021,6950.184,96.107,574.037,570.061,0.0
55776.0,STARLINK-5810,PAYLOAD,2023-11-17 00:21:56,14.98328636,0.0002954,70.0015,191.4642,273.5141,86.568,-1.528e-05,-2.75e-06,0.0,0 STARLINK-5810,1 55776U 23028AM  23321.01523857 -.00000275  00000-0 -15280-4 0  9993,2 55776  70.0015 191.4642 0002954 273.5141  86.5680 14.98328636 40169,6950.197,96.107,574.115,570.009,0.0
55776.0,STARLINK-5810,PAYLOAD,2023-11-17 14:47:09,14.98329026,0.0002752,70.0015,189.9484,275.8672,84.2173,5.3496e-07,-8.7e-07,0.0,0 STARLINK-5810,1 55776U 23028AM  23321.61607803 -.00000087  00000-0  53496-6 0  9996,2 55776  70.0015 189.9484 0002752 275.8672  84.2173 14.98329026 40251,6950.196,96.107,573.974,570.148,0.0
55776.0,STARLINK-5810,PAYLOAD,2023-11-17 22:47:49,14.98330389,0.0002637,70.0008,189.1064,278.8463,81.2398,1.5582e-05,9.3e-07,0.0,0 STARLINK-5810,1 55776U 23028AM  23321.94987717  .00000093  00000-0  15582-4 0  9995,2 55776  70.0008 189.1064 0002637 278.8463  81.2398 14.98330389 40308,6950.192,96.107,573.889,570.224,0.0
55776.0,STARLINK-5810,PAYLOAD,2023-11-18 02:00:05,14.98329733,0.0002702,70.0003,188.7703,277.1039,82.9813,1.6784e-06,-7.3e-07,0.0,0 STARLINK-5810,1 55776U 23028AM  23322.08339762 -.00000073  00000-0  16784-5 0  9997,2 55776  70.0003 188.7703 0002702 277.1039  82.9813 14.98329733 40325,6950.194,96.107,573.937,570.181,0.0
55776.0,STARLINK-5810,PAYLOAD,2023-11-18 14:49:09,14.9832937,0.0002872,69.9993,187.4252,270.5062,89.5768,1.5279e-05,8.9e-07,0.0,0 STARLINK-5810,1 55776U 23028AM  23322.61747605  .00000089  00000-0  15279-4 0  9998,2 55776  69.9993 187.4252 0002872 270.5062  89.5768 14.98329370 40404,6950.195,96.107,574.056,570.064,0.0
55776.0,STARLINK-5810,PAYLOAD,2023-11-19 08:26:38,14.98328962,0.0002885,69.9991,185.5736,271.2674,88.8154,4.3912e-06,-4.1e-07,0.0,0 STARLINK-5810,1 55776U 23028AM  23323.35183635 -.00000041  00000-0  43912-5 0  9992,2 55776  69.9991 185.5736 0002885 271.2674  88.8154 14.98328962 40518,6950.196,96.107,574.066,570.056,0.0
55776.0,STARLINK-5810,PAYLOAD,2023-11-19 21:15:43,14.98329847,0.0002797,69.9988,184.2265,270.6754,89.4085,1.7003e-05,1.1e-06,0.0,0 STARLINK-5810,1 55776U 23028AM  23323.88591530  .00000110  00000-0  17003-4 0  9994,2 55776  69.9988 184.2265 0002797 270.6754  89.4085 14.98329847 40592,6950.193,96.107,574.002,570.114,0.0
55776.0,STARLINK-5810,PAYLOAD,2023-11-20 08:28:39,14.9833034,0.0002879,69.9989,183.0489,271.17,88.9129,-7.813e-06,-1.86e-06,0.0,0 STARLINK-5810,1 55776U 23028AM  23324.35323518 -.00000186  00000-0 -78130-5 0  9990,2 55776  69.9989 183.0489 0002879 271.1700  88.9129 14.98330340 40667,6950.192,96.107,574.058,570.056,0.0
55776.0,STARLINK-5810,PAYLOAD,2023-11-20 21:17:43,14.98331666,0.0002885,69.9988,181.7021,270.8744,89.2085,1.4415e-05,7.9e-07,0.0,0 STARLINK-5810,1 55776U 23028AM  23324.88731314  .00000079  00000-0  14415-4 0  9999,2 55776  69.9988 181.7021 0002885 270.8744  89.2085 14.98331666 40740,6950.188,96.107,574.058,570.048,0.0
55776.0,STARLINK-5810,PAYLOAD,2023-11-21 08:30:40,14.98329556,0.0002867,69.9988,180.5237,270.9675,89.1156,3.981e-06,-4.5e-07,0.0,0 STARLINK-5810,1 55776U 23028AM  23325.35463412 -.00000045  00000-0  39810-5 0  9994,2 55776  69.9988 180.5237 0002867 270.9675  89.1156 14.98329556 40811,6950.194,96.107,574.052,570.067,0.0
55776.0,STARLINK-5810,PAYLOAD,2023-11-21 21:19:44,14.98333782,0.000268,69.9987,179.177,268.1295,91.9557,-8.019e-05,-1.05e-05,0.0,0 STARLINK-5810,1 55776U 23028AM  23325.88871390 -.00001050  00000-0 -80190-4 0  9994,2 55776  69.9987 179.1770 0002680 268.1295  91.9557 14.98333782 40896,6950.181,96.107,573.909,570.184,0.0
55776.0,STARLINK-5810,PAYLOAD,2023-11-22 13:21:05,14.98332039,0.0002825,69.9984,177.4935,268.2972,91.7863,-2.0667e-06,-1.18e-06,0.0,0 STARLINK-5810,1 55776U 23028AM  23326.55631199 -.00000118  00000-0 -20667-5 0  9998,2 55776  69.9984 177.4935 0002825 268.2972  91.7863 14.98332039 40994,6950.187,96.107,574.015,570.088,0.0
55776.0,STARLINK-5810,PAYLOAD,2023-11-22 19:45:37,14.98335192,0.0002702,69.9987,176.8199,267.7215,92.3635,2.3454e-05,1.87e-06,0.0,0 STARLINK-5810,1 55776U 23028AM  23326.82334878  .00000187  00000-0  23454-4 0  9992,2 55776  69.9987 176.8199 0002702 267.7215  92.3635 14.98335192 41033,6950.177,96.107,573.92,570.164,0.0
55776.0,STARLINK-5810,PAYLOAD,2023-11-22 21:21:45,14.98335171,0.000265,69.9987,176.6515,265.7199,94.3657,2.1302e-05,1.61e-06,0.0,0 STARLINK-5810,1 55776U 23028AM  23326.89010852  .00000161  00000-0  21302-4 0  9994,2 55776  69.9987 176.6515 0002650 265.7199  94.3657 14.98335171 41048,6950.177,96.107,573.884,570.2,0.0
55776.0,STARLINK-5810,PAYLOAD,2023-11-23 00:34:01,14.9833618,0.0002674,69.9986,176.3149,268.1616,91.9237,3.1288e-05,2.8e-06,0.0,0 STARLINK-5810,1 55776U 23028AM  23327.02362729  .00000280  00000-0  31288-4 0  9999,2 55776  69.9986 176.3149 0002674 268.1616  91.9237 14.98336180 41064,6950.174,96.107,573.897,570.18,0.0
55776.0,STARLINK-5810,PAYLOAD,2023-11-23 19:47:39,14.98324812,0.0002654,69.999,174.2956,256.4862,103.6002,-7.2562e-05,-9.59e-06,0.0,0 STARLINK-5810,1 55776U 23028AM  23327.82475760 -.00000959  00000-0 -72562-4 0  9992,2 55776  69.9990 174.2956 0002654 256.4862 103.6002 14.98324812 41186,6950.209,96.107,573.919,570.229,0.0
55776.0,STARLINK-5810,PAYLOAD,2023-11-23 21:23:47,14.98317968,0.0002691,69.9997,174.1294,256.7389,103.347,5.7186e-06,-2.5e-07,0.0,0 STARLINK-5810,1 55776U 23028AM  23327.89152006 -.00000025  00000-0  57186-5 0  9993,2 55776  69.9997 174.1294 0002691 256.7389 103.3470 14.98317968 41196,6950.23,96.108,573.965,570.225,0.0
55776.0,STARLINK-5810,PAYLOAD,2023-11-23 22:59:55,14.98312234,0.000263,69.9996,173.9608,256.7709,103.3156,6.7257e-05,7.09e-06,0.0,0 STARLINK-5810,1 55776U 23028AM  23327.95828266  .00000709  00000-0  67257-4 0  9995,2 55776  69.9996 173.9608 0002630 256.7709 103.3156 14.98312234 41204,6950.248,96.108,573.941,570.285,0.0
55776.0,STARLINK-5810,PAYLOAD,2023-11-24 13:25:07,14.983298,0.0002541,69.9992,172.4443,260.9845,99.1027,-5.681e-05,-7.71e-06,0.0,0 STARLINK-5810,1 55776U 23028AM  23328.55911712 -.00000771  00000-0 -56810-4 0  9995,2 55776  69.9992 172.4443 0002541 260.9845  99.1027 14.98329800 41295,6950.194,96.107,573.825,570.292,0.0
55776.0,STARLINK-5810,PAYLOAD,2023-11-24 19:49:40,14.98328346,0.0002568,69.9992,171.771,257.6003,102.4869,-5.8604e-05,-7.92e-06,0.0,0 STARLINK-5810,1 55776U 23028AM  23328.82615802 -.00000792  00000-0 -58604-4 0  9992,2 55776  69.9992 171.7710 0002568 257.6003 102.4869 14.98328346 41333,6950.198,96.107,573.848,570.278,0.0
55776.0,STARLINK-5810,PAYLOAD,2023-11-24 21:25:48,14.98329707,0.0002548,69.9992,171.6026,256.9423,103.1451,-4.6671e-05,-6.5e-06,0.0,0 STARLINK-5810,1 55776U 23028AM  23328.89291679 -.00000650  00000-0 -46671-4 0  9995,2 55776  69.9992 171.6026 0002548 256.9423 103.1451 14.98329707 41346,6950.194,96.107,573.83,570.288,0.0
55776.0,STARLINK-5810,PAYLOAD,2023-11-25 00:38:04,14.98328472,0.0002588,69.9992,171.2663,260.8213,99.2653,-5.3463e-05,-7.31e-06,0.0,0 STARLINK-5810,1 55776U 23028AM  23329.02643806 -.00000731  00000-0 -53463-4 0  9991,2 55776  69.9992 171.2663 0002588 260.8213  99.2653 14.98328472 41363,6950.198,96.107,573.861,570.264,0.0
55776.0,STARLINK-5810,PAYLOAD,2023-11-25 21:27:48,14.98335042,0.0002771,69.9983,169.0774,264.3889,95.6954,0.0001837,2.1e-05,0.0,0 STARLINK-5810,1 55776U 23028AM  23329.89430698  .00002100  00000-0  18370-3 0  9996,2 55776  69.9983 169.0774 0002771 264.3889  95.6954 14.98335042 41492,6950.177,96.107,573.968,570.116,0.0
55776.0,STARLINK-5810,PAYLOAD,2023-11-26 13:29:09,14.98332535,0.0002369,69.999,167.3951,254.4245,105.6653,5.9658e-05,6.19e-06,0.0,0 STARLINK-5810,1 55776U 23028AM  23330.56191075  .00000619  00000-0  59658-4 0  9993,2 55776  69.9990 167.3951 0002369 254.4245 105.6653 14.98332535 41590,6950.185,96.107,573.697,570.404,0.0
